[{"OBJECT_NAME":"IRIDIUM 33 DEB","OBJECT_ID":"1997-051BV","EPOCH":"2026-04-27T06:42:18.512352","MEAN_MOTION":14.92681654,"ECCENTRICITY":0.00013614,"INCLINATION":86.2554,"RA_OF_ASC_NODE":225.1961,"ARG_OF_PERICENTER":175.9817,"MEAN_ANOMALY":243.1064,"EPHEMERIS_TYPE":0,"CLASSIFICATION_TYPE":"U","NORAD_CAT_ID":33960,"ELEMENT_SET_NO":999,"REV_AT_EPOCH":90884,"BSTAR":0.0024397967,"MEAN_MOTION_DOT":0.00025236,"MEAN_MOTION_DDOT":0},{"OBJECT_NAME":"IRIDIUM 33 DEB","OBJECT_ID":"1997-051CB","EPOCH":"2026-04-27T02:34:36.281568","MEAN_MOTION":14.50225232,"ECCENTRICITY":0.00095259,"INCLINATION":86.3944,"RA_OF_ASC_NODE":347.9269,"ARG_OF_PERICENTER":104.7095,"MEAN_ANOMALY":52.3856,"EPHEMERIS_TYPE":0,"CLASSIFICATION_TYPE":"U","NORAD_CAT_ID":33966,"ELEMENT_SET_NO":999,"REV_AT_EPOCH":90403,"BSTAR":0.00038371025,"MEAN_MOTION_DOT":1.513e-5,"MEAN_MOTION_DDOT":0},{"OBJECT_NAME":"IRIDIUM 33 DEB","OBJECT_ID":"1997-051CE","EPOCH":"2026-04-27T06:39:41.000832","MEAN_MOTION":14.50191841,"ECCENTRICITY":0.00085697,"INCLINATION":86.3429,"RA_OF_ASC_NODE":318.9041,"ARG_OF_PERICENTER":30.8816,"MEAN_ANOMALY":329.2891,"EPHEMERIS_TYPE":0,"CLASSIFICATION_TYPE":"U","NORAD_CAT_ID":34071,"ELEMENT_SET_NO":999,"REV_AT_EPOCH":90298,"BSTAR":0.00047995636,"MEAN_MOTION_DOT":1.886e-5,"MEAN_MOTION_DDOT":0},{"OBJECT_NAME":"IRIDIUM 33 DEB","OBJECT_ID":"1997-051CL","EPOCH":"2026-04-27T03:01:27.251040","MEAN_MOTION":14.67363238,"ECCENTRICITY":0.00070578,"INCLINATION":86.3881,"RA_OF_ASC_NODE":351.7535,"ARG_OF_PERICENTER":292.1921,"MEAN_ANOMALY":220.7583,"EPHEMERIS_TYPE":0,"CLASSIFICATION_TYPE":"U","NORAD_CAT_ID":34077,"ELEMENT_SET_NO":999,"REV_AT_EPOCH":90316,"BSTAR":0.00072127757,"MEAN_MOTION_DOT":4.097e-5,"MEAN_MOTION_DDOT":0},{"OBJECT_NAME":"IRIDIUM 33 DEB","OBJECT_ID":"1997-051CN","EPOCH":"2026-04-27T06:23:43.034784","MEAN_MOTION":14.88293293,"ECCENTRICITY":0.00052982,"INCLINATION":86.3724,"RA_OF_ASC_NODE":306.7694,"ARG_OF_PERICENTER":205.6374,"MEAN_ANOMALY":329.2993,"EPHEMERIS_TYPE":0,"CLASSIFICATION_TYPE":"U","NORAD_CAT_ID":34079,"ELEMENT_SET_NO":999,"REV_AT_EPOCH":90990,"BSTAR":0.0017170532,"MEAN_MOTION_DOT":0.00015916,"MEAN_MOTION_DDOT":0},{"OBJECT_NAME":"IRIDIUM 33 DEB","OBJECT_ID":"1997-051CX","EPOCH":"2026-04-27T08:00:38.352672","MEAN_MOTION":15.01034238,"ECCENTRICITY":0.0005377,"INCLINATION":86.38,"RA_OF_ASC_NODE":327.9335,"ARG_OF_PERICENTER":77.1219,"MEAN_ANOMALY":99.0387,"EPHEMERIS_TYPE":0,"CLASSIFICATION_TYPE":"U","NORAD_CAT_ID":34088,"ELEMENT_SET_NO":999,"REV_AT_EPOCH":90769,"BSTAR":0.0027341885,"MEAN_MOTION_DOT":0.00035084,"MEAN_MOTION_DDOT":0},{"OBJECT_NAME":"IRIDIUM 33 DEB","OBJECT_ID":"1997-051DA","EPOCH":"2026-04-26T16:36:50.952096","MEAN_MOTION":14.93034755,"ECCENTRICITY":0.00266123,"INCLINATION":86.3476,"RA_OF_ASC_NODE":4.4684,"ARG_OF_PERICENTER":169.5345,"MEAN_ANOMALY":190.6443,"EPHEMERIS_TYPE":0,"CLASSIFICATION_TYPE":"U","NORAD_CAT_ID":34091,"ELEMENT_SET_NO":999,"REV_AT_EPOCH":89873,"BSTAR":0.0026913506,"MEAN_MOTION_DOT":0.00028287,"MEAN_MOTION_DDOT":0},{"OBJECT_NAME":"IRIDIUM 33 DEB","OBJECT_ID":"1997-051DG","EPOCH":"2026-04-26T11:36:20.369376","MEAN_MOTION":14.3583271,"ECCENTRICITY":0.00796793,"INCLINATION":86.1949,"RA_OF_ASC_NODE":301.8814,"ARG_OF_PERICENTER":281.207,"MEAN_ANOMALY":78.0177,"EPHEMERIS_TYPE":0,"CLASSIFICATION_TYPE":"U","NORAD_CAT_ID":34097,"ELEMENT_SET_NO":999,"REV_AT_EPOCH":89052,"BSTAR":0.0010368909,"MEAN_MOTION_DOT":3.13e-5,"MEAN_MOTION_DDOT":0},{"OBJECT_NAME":"IRIDIUM 33 DEB","OBJECT_ID":"1997-051DY","EPOCH":"2026-04-26T10:07:55.795584","MEAN_MOTION":14.433723,"ECCENTRICITY":0.00521713,"INCLINATION":86.2066,"RA_OF_ASC_NODE":272.4671,"ARG_OF_PERICENTER":11.9185,"MEAN_ANOMALY":348.3236,"EPHEMERIS_TYPE":0,"CLASSIFICATION_TYPE":"U","NORAD_CAT_ID":34145,"ELEMENT_SET_NO":999,"REV_AT_EPOCH":89580,"BSTAR":0.00091339516,"MEAN_MOTION_DOT":3.151e-5,"MEAN_MOTION_DDOT":0},{"OBJECT_NAME":"IRIDIUM 33 DEB","OBJECT_ID":"1997-051DZ","EPOCH":"2026-04-26T18:35:18.749184","MEAN_MOTION":14.49950344,"ECCENTRICITY":0.0028243,"INCLINATION":86.2784,"RA_OF_ASC_NODE":290.1029,"ARG_OF_PERICENTER":132.9645,"MEAN_ANOMALY":243.2132,"EPHEMERIS_TYPE":0,"CLASSIFICATION_TYPE":"U","NORAD_CAT_ID":34146,"ELEMENT_SET_NO":999,"REV_AT_EPOCH":90063,"BSTAR":0.00082806825,"MEAN_MOTION_DOT":3.239e-5,"MEAN_MOTION_DDOT":0},{"OBJECT_NAME":"IRIDIUM 33 DEB","OBJECT_ID":"1997-051EN","EPOCH":"2026-04-27T01:57:10.920096","MEAN_MOTION":14.3886256,"ECCENTRICITY":0.00267317,"INCLINATION":86.3538,"RA_OF_ASC_NODE":350.5406,"ARG_OF_PERICENTER":199.081,"MEAN_ANOMALY":160.9389,"EPHEMERIS_TYPE":0,"CLASSIFICATION_TYPE":"U","NORAD_CAT_ID":34159,"ELEMENT_SET_NO":999,"REV_AT_EPOCH":89905,"BSTAR":0.00026525388,"MEAN_MOTION_DOT":8.39e-6,"MEAN_MOTION_DDOT":0},{"OBJECT_NAME":"IRIDIUM 33 DEB","OBJECT_ID":"1997-051ES","EPOCH":"2026-04-27T07:01:30.614880","MEAN_MOTION":14.4579251,"ECCENTRICITY":0.0022668,"INCLINATION":86.3231,"RA_OF_ASC_NODE":303.9858,"ARG_OF_PERICENTER":53.0387,"MEAN_ANOMALY":124.2944,"EPHEMERIS_TYPE":0,"CLASSIFICATION_TYPE":"U","NORAD_CAT_ID":34350,"ELEMENT_SET_NO":999,"REV_AT_EPOCH":90251,"BSTAR":0.00031080126,"MEAN_MOTION_DOT":1.125e-5,"MEAN_MOTION_DDOT":0},{"OBJECT_NAME":"IRIDIUM 33 DEB","OBJECT_ID":"1997-051FJ","EPOCH":"2026-04-27T03:10:57.953280","MEAN_MOTION":14.55407681,"ECCENTRICITY":0.00221495,"INCLINATION":86.3715,"RA_OF_ASC_NODE":350.3714,"ARG_OF_PERICENTER":48.7474,"MEAN_ANOMALY":116.8808,"EPHEMERIS_TYPE":0,"CLASSIFICATION_TYPE":"U","NORAD_CAT_ID":34366,"ELEMENT_SET_NO":999,"REV_AT_EPOCH":90150,"BSTAR":0.00086756263,"MEAN_MOTION_DOT":3.8e-5,"MEAN_MOTION_DDOT":0},{"OBJECT_NAME":"IRIDIUM 33 DEB","OBJECT_ID":"1997-051FT","EPOCH":"2026-04-27T00:26:27.205152","MEAN_MOTION":14.18260472,"ECCENTRICITY":0.01038113,"INCLINATION":86.4273,"RA_OF_ASC_NODE":128.1878,"ARG_OF_PERICENTER":58.0424,"MEAN_ANOMALY":331.5089,"EPHEMERIS_TYPE":0,"CLASSIFICATION_TYPE":"U","NORAD_CAT_ID":34375,"ELEMENT_SET_NO":999,"REV_AT_EPOCH":88629,"BSTAR":0.00038850626,"MEAN_MOTION_DOT":8.62e-6,"MEAN_MOTION_DDOT":0},{"OBJECT_NAME":"IRIDIUM 33 DEB","OBJECT_ID":"1997-051FU","EPOCH":"2026-04-26T22:38:13.839936","MEAN_MOTION":14.65242176,"ECCENTRICITY":0.0026582,"INCLINATION":86.2921,"RA_OF_ASC_NODE":305.6109,"ARG_OF_PERICENTER":72.6151,"MEAN_ANOMALY":287.7965,"EPHEMERIS_TYPE":0,"CLASSIFICATION_TYPE":"U","NORAD_CAT_ID":34376,"ELEMENT_SET_NO":999,"REV_AT_EPOCH":89985,"BSTAR":0.0016713,"MEAN_MOTION_DOT":9.074e-5,"MEAN_MOTION_DDOT":0},{"OBJECT_NAME":"IRIDIUM 33 DEB","OBJECT_ID":"1997-051GB","EPOCH":"2026-04-27T00:58:58.073088","MEAN_MOTION":15.04867436,"ECCENTRICITY":0.00081197,"INCLINATION":86.389,"RA_OF_ASC_NODE":309.0922,"ARG_OF_PERICENTER":352.8655,"MEAN_ANOMALY":137.5491,"EPHEMERIS_TYPE":0,"CLASSIFICATION_TYPE":"U","NORAD_CAT_ID":34486,"ELEMENT_SET_NO":999,"REV_AT_EPOCH":91015,"BSTAR":0.0020889144,"MEAN_MOTION_DOT":0.00029657,"MEAN_MOTION_DDOT":0}]
