IRIDIUM 33 DEB          
1 33960U 97051BV  26117.27938093  .00025236  00000+0  24398-2 0  9996
2 33960  86.2554 225.1961 0001361 175.9817 243.1064 14.92681654908843
IRIDIUM 33 DEB          
1 33966U 97051CB  26117.10736437  .00001513  00000+0  38371-3 0  9991
2 33966  86.3944 347.9269 0009525 104.7095  52.3856 14.50225232904031
IRIDIUM 33 DEB          
1 34071U 97051CE  26117.27755788  .00001886  00000+0  47996-3 0  9993
2 34071  86.3429 318.9041 0008569  30.8816 329.2891 14.50191841902985
IRIDIUM 33 DEB          
1 34077U 97051CL  26117.12600985  .00004097  00000+0  72128-3 0  9993
2 34077  86.3881 351.7535 0007057 292.1921 220.7583 14.67363238903160
IRIDIUM 33 DEB          
1 34079U 97051CN  26117.26647031  .00015916  00000+0  17171-2 0  9991
2 34079  86.3724 306.7694 0005298 205.6374 329.2993 14.88293293909904
IRIDIUM 33 DEB          
1 34088U 97051CX  26117.33377723  .00035084  00000+0  27342-2 0  9996
2 34088  86.3800 327.9335 0005377  77.1219  99.0387 15.01034238907695
IRIDIUM 33 DEB          
1 34091U 97051DA  26116.69225639  .00028287  00000+0  26914-2 0  9997
2 34091  86.3476   4.4684 0026612 169.5345 190.6443 14.93034755898732
IRIDIUM 33 DEB          
1 34097U 97051DG  26116.48356909  .00003130  00000+0  10369-2 0  9992
2 34097  86.1949 301.8814 0079679 281.2070  78.0177 14.35832710890523
IRIDIUM 33 DEB          
1 34145U 97051DY  26116.42217356  .00003151  00000+0  91340-3 0  9994
2 34145  86.2066 272.4671 0052171  11.9185 348.3236 14.43372300895803
IRIDIUM 33 DEB          
1 34146U 97051DZ  26116.77452256  .00003239  00000+0  82807-3 0  9998
2 34146  86.2784 290.1029 0028243 132.9645 243.2132 14.49950344900635
IRIDIUM 33 DEB          
1 34159U 97051EN  26117.08137639  .00000839  00000+0  26525-3 0  9990
2 34159  86.3538 350.5406 0026731 199.0810 160.9389 14.38862560899057
IRIDIUM 33 DEB          
1 34350U 97051ES  26117.29271545  .00001125  00000+0  31080-3 0  9992
2 34350  86.3231 303.9858 0022668  53.0387 124.2944 14.45792510902517
IRIDIUM 33 DEB          
1 34366U 97051FJ  26117.13261520  .00003800  00000+0  86756-3 0  9996
2 34366  86.3715 350.3714 0022149  48.7474 116.8808 14.55407681901507
IRIDIUM 33 DEB          
1 34375U 97051FT  26117.01837043  .00000862  00000+0  38851-3 0  9990
2 34375  86.4273 128.1878 0103811  58.0424 331.5089 14.18260472886293
IRIDIUM 33 DEB          
1 34376U 97051FU  26116.94321574  .00009074  00000+0  16713-2 0  9995
2 34376  86.2921 305.6109 0026582  72.6151 287.7965 14.65242176899853
IRIDIUM 33 DEB          
1 34486U 97051GB  26117.04094992  .00029657  00000+0  20889-2 0  9998
2 34486  86.3890 309.0922 0008119 352.8655 137.5491 15.04867436910159
